line1,line2,validFromUtcTime
1 00000U 00000E   26001.00000000  .00000000  00000-0  27772-4 0    01,2 00000  89.0018   0.3309 0010143 270.1852  14.9601 13.55284374    00,2026-01-01T00:00:00Z
1 00000U 00000E   26002.00000000  .00000000  00000-0  27772-4 0    02,2 00000  89.0014   0.2287 0010288 266.7379 214.5221 13.55285952    04,2026-01-02T00:00:00Z
